TISAT 1                 
1 36799U 10035E   23362.58528585  .00007561  00000+0  62709-3 0  9990
2 36799  98.1070 239.8669 0010705  48.3507 311.8630 14.99070396731320
M-CUBED & EXP-1 PRIME   
1 37855U 11061F   23362.12515796  .00056512  00000+0  11765-2 0  9999
2 37855 101.6929  75.7177 0087892 161.0346 199.4193 15.41294565666272
AEROCUBE 4.5A           
1 38767U 12048K   23362.59567846  .00010381  00000+0  65824-3 0  9992
2 38767  64.6621 143.4009 0103204  82.5074 278.7754 15.04985830234603
AEROCUBE 4.5B           
1 38768U 12048L   23362.60000858  .00015406  00000+0  75796-3 0  9992
2 38768  64.6631  79.2788 0082975  71.4210 289.5903 15.15167680235351
STRAND-1                
1 39090U 13009E   23362.51456086  .00000629  00000+0  23170-3 0  9997
2 39090  98.3795 190.5286 0009749  49.6804 310.5233 14.35827777567607
BRITE-AUSTRIA           
1 39091U 13009F   23362.46346914  .00000383  00000+0  14733-3 0  9992
2 39091  98.3830 189.7336 0011333  55.7875 304.4383 14.35640521567622
BEESAT-3                
1 39135U 13015F   23362.42453632  .06152252  74898-5  13528-2 0  9991
2 39135  64.8240  27.7061 0005015 329.0351  31.0533 16.30034882592246
BEESAT-2                
1 39136U 13015G   23362.47464828  .00243940  00000+0  15364-2 0  9993
2 39136  64.8543  47.7396 0013655 289.9033  70.0650 15.75603713591836
NEE-01 PEGASO           
1 39151U 13018B   23362.58741956  .00004102  00000+0  49616-3 0  9998
2 39151  98.0229 113.4437 0014601 236.8297 123.1517 14.84185628576503
ESTCUBE 1               
1 39161U 13021C   23362.46906303  .00002657  00000+0  39903-3 0  9990
2 39161  97.8521  69.1262 0010306  68.4869 291.7439 14.75318653571765
POPACS 1                
1 39268U 13055D   23360.93607167  .00037743  00000+0  75665-3 0  9990
2 39268  80.9867 348.0462 0454005 284.4506  70.6744 14.79972363534812
POPACS 2                
1 39269U 13055E   23362.17092157  .00016948  00000+0  40906-3 0  9990
2 39269  81.0052  65.1450 0579672 125.0225 240.6797 14.49861259530610
POPACS 3                
1 39270U 13055F   23362.27987283  .00011880  00000+0  34046-3 0  9994
2 39270  81.0125 110.3884 0645762 252.0983 100.8806 14.32326669508316
ZACUBE-1 (TSHEPISOSAT)  
1 39417U 13066B   23362.44701055  .00005985  00000+0  65793-3 0  9991
2 39417  97.7134 317.8244 0053441   9.7981 350.4264 14.86935869546049
WNISAT-1                
1 39423U 13066H   23362.57231379  .00001679  00000+0  33160-3 0  9998
2 39423  97.6777 205.7574 0171128 187.3972 172.4699 14.54703306535489
TRITON-1                
1 39427U 13066M   23362.55602495  .00004379  00000+0  64075-3 0  9990
2 39427  97.8426 281.2938 0103839 274.3721  84.5628 14.72522209540945
DELFI-N3XT              
1 39428U 13066N   23362.35161775  .00008078  00000+0  10991-2 0  9997
2 39428  97.8394 280.6314 0104450 284.8461  74.1198 14.75257415540739
GOMX-1                  
1 39430U 13066Q   23362.58204712  .00002454  00000+0  42057-3 0  9995
2 39430  97.7554 242.2454 0144304  77.7605 283.9716 14.62945299537764
CUBEBUG-2 (LO-74)       
1 39440U 13066AA  23362.37573204  .00003989  00000+0  49485-3 0  9994
2 39440  97.7968 305.2357 0074248 114.2897 246.6094 14.81238262542885
NEE-02 KRYSAOR          
1 39441U 13066AB  23362.30556159  .00002666  00000+0  35255-3 0  9999
2 39441  97.8069 301.5914 0077372 133.4056 227.3631 14.78710074542524
FUNCUBE-1 (AO-73)       
1 39444U 13066AE  23362.42782494  .00007720  00000+0  80359-3 0  9999
2 39444  97.6989 320.5808 0050705 353.1623   6.8896 14.89151873544524
UWE-3                   
1 39446U 13066AG  23362.35764326  .00005207  00000+0  61028-3 0  9997
2 39446  97.7617 311.2944 0064818  64.0445 296.7429 14.83901470543209
BRITE-CA1 (TORONTO)     
1 40020U 14033L   23362.58055922  .00001812  00000+0  30405-3 0  9995
2 40020  97.8510 141.1297 0083006 280.1400  79.0451 14.68656756509672
DUCHIFAT-1              
1 40021U 14033M   23362.56781732  .00010571  00000+0  80841-3 0  9990
2 40021  98.0745 333.5339 0012663 328.8586  31.1886 15.02056183518326
NANOSATC-BR1            
1 40024U 14033Q   23362.57215999  .00009298  00000+0  76584-3 0  9994
2 40024  98.0527 323.2731 0009637  10.6288 349.5135 14.99274556517504
QB50P1                  
1 40025U 14033R   23362.55776978  .00008249  00000+0  72946-3 0  9995
2 40025  98.0223 313.3639 0011461  20.3099 339.8575 14.96536802517187
QB50P2                  
1 40032U 14033Y   23362.46233788  .00007278  00000+0  66088-3 0  9991
2 40032  97.9891 306.0139 0010793  18.5352 341.6260 14.95541779516983
PERSEUS-M2              
1 40037U 14033AD  23362.50120035  .00002622  00000+0  28148-3 0  9994
2 40037  97.9191 287.9409 0014735  45.6114 314.6307 14.89389967516260
PERSEUS-M1              
1 40039U 14033AF  23362.49679766  .00002588  00000+0  27991-3 0  9990
2 40039  97.9019 284.4610 0014555  45.1771 315.0626 14.89102616516129
POLYITAN-1              
1 40042U 14033AJ  23362.60476901  .00009273  00000+0  78544-3 0  9991
2 40042  98.0323 315.9551 0012377   5.3517 354.7835 14.98168107517112
TIGRISAT                
1 40043U 14033AK  23362.41196987  .00003526  00000+0  48644-3 0  9997
2 40043  97.6743 167.9320 0057357 141.6141 218.9173 14.77636690512088
AEROCUBE 6A             
1 40045U 14033AM  23362.44208885  .00006245  00000+0  79433-3 0  9994
2 40045  97.6566 178.1628 0053579 123.6802 236.9537 14.80907613512358
AEROCUBE 6B             
1 40046U 14033AN  23362.44040903  .00006337  00000+0  79132-3 0  9998
2 40046  97.6523 176.7337 0052232 119.9239 240.7176 14.81722202512396
UKUBE-1                 
1 40074U 14037F   23362.47333392  .00006488  00000+0  66576-3 0  9998
2 40074  98.3410 277.3646 0002442 288.1778  71.9173 14.90783050513172
BRITE-PL2 (HEWELIUSZ)   
1 40119U 14049B   23362.50038920  .00003185  00000+0  35518-3 0  9997
2 40119  97.8833  98.1761 0015727 205.2264 154.8186 14.87668986507042
GRIFEX                  
1 40379U 15003D   23362.51533717  .00166439  00000+0  12078-2 0  9998
2 40379  99.0829 350.3582 0037656 313.2075  46.6040 15.71913730493526
CP10 (EXOCUBE)          
1 40380U 15003E   23362.47427425  .00059853  00000+0  10254-2 0  9998
2 40380  99.0985 335.3804 0071010 359.4628   0.6529 15.48169394492602
EXACTVIEW 9             
1 40936U 15052G   23355.44009466  .00003551  00000+0  37756-3 0  9990
2 40936   6.0020 187.7456 0009396  65.6238 294.4870 14.79533165445020
AEROCUBE 5C             
1 40965U 15058B   23362.57689005  .00002564  00000+0  26971-3 0  9993
2 40965  64.7700 167.6661 0176565   2.7149 357.4872 14.80941242231610
AEROCUBE 7              
1 40966U 15058C   23362.57514109  .00003262  00000+0  33002-3 0  9995
2 40966  64.7687 162.7961 0173129   2.4030 357.7868 14.82284347231653
VELOX-II                
1 41171U 15077F   23362.13131718  .00045261  00000+0  10660-2 0  9997
2 41171  14.9907 310.9784 0003491  81.3551 278.7169 15.39970444445007
HORYU-4                 
1 41340U 16012D   23362.45231291  .00010697  00000+0  60639-3 0  9994
2 41340  31.0049  10.5261 0010026  33.7538 326.3738 15.11692597432102
E-ST@R-II               
1 41459U 16025D   23362.57662696  .00065084  00000+0  10731-2 0  9996
2 41459  98.1548 225.7871 0072539 132.7153 228.0235 15.49076942422771
RAVAN                   
1 41849U 16067B   23362.42983203  .00010965  00000+0  68350-3 0  9998
2 41849  98.0502 165.7587 0013941 251.8110 108.1600 15.09660153390034
CELTEE 1                
1 41850U 16067C   23362.38892914  .00006653  00000+0  48693-3 0  9990
2 41850  98.0833 158.6066 0001407  62.7080 297.4288 15.03937731389580
OPTICUBE 04             
1 41851U 16067D   23362.39935138  .00003578  00000+0  28408-3 0  9993
2 41851  98.0455 155.6201 0014294 268.3069  91.6517 15.01101685389452
AEROCUBE 8D             
1 41852U 16067E   23362.42252542  .00006424  00000+0  46108-3 0  9999
2 41852  98.0877 158.0209 0004832 337.1053  22.9956 15.04684431389543
AEROCUBE 8C             
1 41853U 16067F   23362.42823933  .00007158  00000+0  51424-3 0  9990
2 41853  98.0688 157.0492 0007235 255.8626 104.1795 15.04596228389538
PROMETHEUS 2-1          
1 41854U 16067G   23361.94177396  .00015072  00000+0  91510-3 0  9996
2 41854  98.0844 161.4807 0014422 284.7771  75.1859 15.10528480389686
PROMETHEUS 2-3          
1 41855U 16067H   23362.40052728  .00014083  00000+0  85603-3 0  9997
2 41855  98.0769 161.6238 0012069 292.5940  67.4011 15.10532121389752
DIDO-2                  
1 42000U 17008BE  23362.47840502  .00042194  00000+0  70116-3 0  9995
2 42000  97.1729  56.5976 0005788  57.2067 302.9742 15.51947883381938
AALTO-1                 
1 42775U 17036L   23362.59515707  .00030962  00000+0  62983-3 0  9997
2 42775  97.1301  28.0711 0009355 112.8151 247.4088 15.46187397362441
URSA MAIOR              
1 42776U 17036M   23362.61811061  .00044213  00000+0  76764-3 0  9999
2 42776  97.1292  30.2753 0008659 105.2461 254.9750 15.50679318362575
DIAMOND RED             
1 42783U 17036U   23362.58713858  .00067740  00000+0  88838-3 0  9993
2 42783  97.1222  34.8035 0006291 105.1595 255.0358 15.58316440362866
PEGASUS                 
1 42784U 17036V   23362.62681966  .00744977  25773-3  14749-2 0  9994
2 42784  97.0989  41.5746 0002083  89.6643 270.4874 16.00019245363333
DIAMOND GREEN           
1 42785U 17036W   23362.58441141  .00088886  00000+0  99174-3 0  9997
2 42785  97.1193  35.5639 0006031 101.4146 258.7790 15.62488219362988
DIAMOND BLUE            
1 42786U 17036X   23362.62327371  .00075947  00000+0  93116-3 0  9995
2 42786  97.1227  35.2537 0006585  98.5914 261.6090 15.60069852362964
CICERO 6                
1 42793U 17036AE  23362.60435872  .00047604  00000+0  76070-3 0  9996
2 42793  97.1207  34.0647 0007005 101.6525 258.5516 15.53006650362913
